1 66997U 25292E   26039.18558686  .00004280  00000-0  30253-3 0  9994
2 66997  97.6448 116.2031 0016351  83.1477 277.1609 15.05321149  9021
1 66997U 25292E   26039.25205947  .00004306  00000-0  30433-3 0  9990
2 66997  97.6448 116.2690 0016337  82.9002 277.4081 15.05321714  9033
1 66997U 25292E   26039.51794984  .00004370  00000-0  30873-3 0  9992
2 66997  97.6446 116.5324 0016312  82.0920 278.2157 15.05323918  9076
1 66997U 25292E   26039.58442257  .00003985  00000-0  28194-3 0  9996
2 66997  97.6446 116.5983 0016300  81.8708 278.4367 15.05323569  9083
1 66997U 25292E   26039.78384015  .00003989  00000-0  28220-3 0  9999
2 66997  97.6446 116.7958 0016284  81.2170 279.0900 15.05325178  9117
1 66997U 25292E   26039.91678480  .00003614  00000-0  25615-3 0  9996
2 66997  97.6445 116.9275 0016268  80.8060 279.5006 15.05325733  9136
